ATLAS CENTAUR R/B       
1 06155U 72065B   26114.16371500  .00000983  00000+0  13689-3 0  9993
2 06155  35.0025  39.2279 0033054  32.0064 328.2637 14.77804590847999
SL-8 R/B                
1 08459U 75112B   26113.92486591  .00000076  00000+0  33652-4 0  9994
2 08459  74.0595 295.6989 0015368  12.1641 347.9881 14.38224646638371
SL-3 R/B                
1 10114U 77057B   26114.15195304  .00010247  00000+0  20680-3 0  9997
2 10114  97.5826 288.1324 0008354 116.6807 243.5298 15.46690688675355
SEASAT 1                
1 10967U 78064A   26114.21833598  .00000226  00000+0  10142-3 0  9991
2 10967 108.0082 221.0245 0002798 261.3948  98.6881 14.46197918513097
SL-14 R/B               
1 11267U 79011B   26113.24814017  .00000416  00000+0  38516-4 0  9992
2 11267  82.5250  54.2812 0014363 268.8207  91.1367 14.91963594535420
SL-8 R/B                
1 11574U 79089B   26114.10612389  .00000158  00000+0  55800-4 0  9990
2 11574  74.0711   6.9729 0015714 171.2414 188.9020 14.42378078442654
SL-14 R/B               
1 11672U 80005B   26114.16298219  .00000450  00000+0  42950-4 0  9994
2 11672  82.5124 264.0853 0016063  17.3244 342.8520 14.90979670483265
SL-8 R/B                
1 12139U 81003B   26113.34263809  .00011103  00000+0  27546-3 0  9998
2 12139  82.9363 248.6693 0256577  23.5105 337.7608 15.12759593321428
SL-3 R/B                
1 12465U 81046B   26114.12711734  .00009768  00000+0  21914-3 0  9996
2 12465  81.2308 235.1297 0018400 218.8774 141.1147 15.43065925445430
SL-3 R/B                
1 12904U 81103B   26114.14610869  .00003296  00000+0  14358-3 0  9991
2 12904  81.1583 160.0986 0014241 130.7866 229.4604 15.21838328980147
SL-3 R/B                
1 13068U 82013B   26114.13692616  .00003620  00000+0  15460-3 0  9999
2 13068  81.1714 107.4788 0022756  30.0522 330.2010 15.22380681411260
SL-3 R/B                
1 13154U 82039B   26114.17508911  .00001216  00000+0  72152-4 0  9992
2 13154  81.1488 163.4942 0028304 169.6579 190.5235 15.10295575388504
