CCSDS_OMM_VERS = 2.0
CREATION_DATE  = 
ORIGINATOR     = 

OBJECT_NAME    = ATLAS CENTAUR R/B
OBJECT_ID      = 1972-065B
CENTER_NAME    = EARTH
REF_FRAME      = TEME
TIME_SYSTEM    = UTC
MEAN_ELEMENT_THEORY = SGP/SGP4

EPOCH          = 2026-04-24T03:55:44.976000
MEAN_MOTION    = 14.77804590
ECCENTRICITY   = .0033054
INCLINATION    = 35.0025
RA_OF_ASC_NODE = 39.2279
ARG_OF_PERICENTER = 32.0064
MEAN_ANOMALY   = 328.2637

EPHEMERIS_TYPE = 0
CLASSIFICATION_TYPE = U
NORAD_CAT_ID   = 6155
ELEMENT_SET_NO = 999
REV_AT_EPOCH   = 84799
BSTAR          = .13689E-3
MEAN_MOTION_DOT = .983E-5
MEAN_MOTION_DDOT = 0

CCSDS_OMM_VERS = 2.0
CREATION_DATE  = 
ORIGINATOR     = 

OBJECT_NAME    = SL-8 R/B
OBJECT_ID      = 1975-112B
CENTER_NAME    = EARTH
REF_FRAME      = TEME
TIME_SYSTEM    = UTC
MEAN_ELEMENT_THEORY = SGP/SGP4

EPOCH          = 2026-04-23T22:11:48.414624
MEAN_MOTION    = 14.38224646
ECCENTRICITY   = .0015368
INCLINATION    = 74.0595
RA_OF_ASC_NODE = 295.6989
ARG_OF_PERICENTER = 12.1641
MEAN_ANOMALY   = 347.9881

EPHEMERIS_TYPE = 0
CLASSIFICATION_TYPE = U
NORAD_CAT_ID   = 8459
ELEMENT_SET_NO = 999
REV_AT_EPOCH   = 63837
BSTAR          = .33652E-4
MEAN_MOTION_DOT = .76E-6
MEAN_MOTION_DDOT = 0

CCSDS_OMM_VERS = 2.0
CREATION_DATE  = 
ORIGINATOR     = 

OBJECT_NAME    = SL-3 R/B
OBJECT_ID      = 1977-057B
CENTER_NAME    = EARTH
REF_FRAME      = TEME
TIME_SYSTEM    = UTC
MEAN_ELEMENT_THEORY = SGP/SGP4

EPOCH          = 2026-04-24T03:38:48.742656
MEAN_MOTION    = 15.46690688
ECCENTRICITY   = .0008354
INCLINATION    = 97.5826
RA_OF_ASC_NODE = 288.1324
ARG_OF_PERICENTER = 116.6807
MEAN_ANOMALY   = 243.5298

EPHEMERIS_TYPE = 0
CLASSIFICATION_TYPE = U
NORAD_CAT_ID   = 10114
ELEMENT_SET_NO = 999
REV_AT_EPOCH   = 67535
BSTAR          = .2068E-3
MEAN_MOTION_DOT = .10247E-3
MEAN_MOTION_DDOT = 0

CCSDS_OMM_VERS = 2.0
CREATION_DATE  = 
ORIGINATOR     = 

OBJECT_NAME    = SEASAT 1
OBJECT_ID      = 1978-064A
CENTER_NAME    = EARTH
REF_FRAME      = TEME
TIME_SYSTEM    = UTC
MEAN_ELEMENT_THEORY = SGP/SGP4

EPOCH          = 2026-04-24T05:14:24.228672
MEAN_MOTION    = 14.46197918
ECCENTRICITY   = .0002798
INCLINATION    = 108.0082
RA_OF_ASC_NODE = 221.0245
ARG_OF_PERICENTER = 261.3948
MEAN_ANOMALY   = 98.6881

EPHEMERIS_TYPE = 0
CLASSIFICATION_TYPE = U
NORAD_CAT_ID   = 10967
ELEMENT_SET_NO = 999
REV_AT_EPOCH   = 51309
BSTAR          = .10142E-3
MEAN_MOTION_DOT = .226E-5
MEAN_MOTION_DDOT = 0

CCSDS_OMM_VERS = 2.0
CREATION_DATE  = 
ORIGINATOR     = 

OBJECT_NAME    = SL-14 R/B
OBJECT_ID      = 1979-011B
CENTER_NAME    = EARTH
REF_FRAME      = TEME
TIME_SYSTEM    = UTC
MEAN_ELEMENT_THEORY = SGP/SGP4

EPOCH          = 2026-04-23T05:57:19.310688
MEAN_MOTION    = 14.91963594
ECCENTRICITY   = .00143639
INCLINATION    = 82.5250
RA_OF_ASC_NODE = 54.2812
ARG_OF_PERICENTER = 268.8207
MEAN_ANOMALY   = 91.1367

EPHEMERIS_TYPE = 0
CLASSIFICATION_TYPE = U
NORAD_CAT_ID   = 11267
ELEMENT_SET_NO = 999
REV_AT_EPOCH   = 53542
BSTAR          = .38515817E-4
MEAN_MOTION_DOT = .416E-5
MEAN_MOTION_DDOT = 0

CCSDS_OMM_VERS = 2.0
CREATION_DATE  = 
ORIGINATOR     = 

OBJECT_NAME    = SL-8 R/B
OBJECT_ID      = 1979-089B
CENTER_NAME    = EARTH
REF_FRAME      = TEME
TIME_SYSTEM    = UTC
MEAN_ELEMENT_THEORY = SGP/SGP4

EPOCH          = 2026-04-24T02:32:49.104096
MEAN_MOTION    = 14.42378078
ECCENTRICITY   = .0015714
INCLINATION    = 74.0711
RA_OF_ASC_NODE = 6.9729
ARG_OF_PERICENTER = 171.2414
MEAN_ANOMALY   = 188.9020

EPHEMERIS_TYPE = 0
CLASSIFICATION_TYPE = U
NORAD_CAT_ID   = 11574
ELEMENT_SET_NO = 999
REV_AT_EPOCH   = 44265
BSTAR          = .558E-4
MEAN_MOTION_DOT = .158E-5
MEAN_MOTION_DDOT = 0

CCSDS_OMM_VERS = 2.0
CREATION_DATE  = 
ORIGINATOR     = 

OBJECT_NAME    = SL-14 R/B
OBJECT_ID      = 1980-005B
CENTER_NAME    = EARTH
REF_FRAME      = TEME
TIME_SYSTEM    = UTC
MEAN_ELEMENT_THEORY = SGP/SGP4

EPOCH          = 2026-04-24T03:54:41.661216
MEAN_MOTION    = 14.90979670
ECCENTRICITY   = .0016063
INCLINATION    = 82.5124
RA_OF_ASC_NODE = 264.0853
ARG_OF_PERICENTER = 17.3244
MEAN_ANOMALY   = 342.8520

EPHEMERIS_TYPE = 0
CLASSIFICATION_TYPE = U
NORAD_CAT_ID   = 11672
ELEMENT_SET_NO = 999
REV_AT_EPOCH   = 48326
BSTAR          = .4295E-4
MEAN_MOTION_DOT = .45E-5
MEAN_MOTION_DDOT = 0

CCSDS_OMM_VERS = 2.0
CREATION_DATE  = 
ORIGINATOR     = 

OBJECT_NAME    = SL-8 R/B
OBJECT_ID      = 1981-003B
CENTER_NAME    = EARTH
REF_FRAME      = TEME
TIME_SYSTEM    = UTC
MEAN_ELEMENT_THEORY = SGP/SGP4

EPOCH          = 2026-04-23T08:13:23.930976
MEAN_MOTION    = 15.12759593
ECCENTRICITY   = .0256577
INCLINATION    = 82.9363
RA_OF_ASC_NODE = 248.6693
ARG_OF_PERICENTER = 23.5105
MEAN_ANOMALY   = 337.7608

EPHEMERIS_TYPE = 0
CLASSIFICATION_TYPE = U
NORAD_CAT_ID   = 12139
ELEMENT_SET_NO = 999
REV_AT_EPOCH   = 32142
BSTAR          = .27545575E-3
MEAN_MOTION_DOT = .11103E-3
MEAN_MOTION_DDOT = 0

CCSDS_OMM_VERS = 2.0
CREATION_DATE  = 
ORIGINATOR     = 

OBJECT_NAME    = SL-3 R/B
OBJECT_ID      = 1981-046B
CENTER_NAME    = EARTH
REF_FRAME      = TEME
TIME_SYSTEM    = UTC
MEAN_ELEMENT_THEORY = SGP/SGP4

EPOCH          = 2026-04-24T03:03:02.938176
MEAN_MOTION    = 15.43065925
ECCENTRICITY   = .00184
INCLINATION    = 81.2308
RA_OF_ASC_NODE = 235.1297
ARG_OF_PERICENTER = 218.8774
MEAN_ANOMALY   = 141.1147

EPHEMERIS_TYPE = 0
CLASSIFICATION_TYPE = U
NORAD_CAT_ID   = 12465
ELEMENT_SET_NO = 999
REV_AT_EPOCH   = 44543
BSTAR          = .21914E-3
MEAN_MOTION_DOT = .9768E-4
MEAN_MOTION_DDOT = 0

CCSDS_OMM_VERS = 2.0
CREATION_DATE  = 
ORIGINATOR     = 

OBJECT_NAME    = SL-3 R/B
OBJECT_ID      = 1981-103B
CENTER_NAME    = EARTH
REF_FRAME      = TEME
TIME_SYSTEM    = UTC
MEAN_ELEMENT_THEORY = SGP/SGP4

EPOCH          = 2026-04-24T03:30:23.790816
MEAN_MOTION    = 15.21838328
ECCENTRICITY   = .0014241
INCLINATION    = 81.1583
RA_OF_ASC_NODE = 160.0986
ARG_OF_PERICENTER = 130.7866
MEAN_ANOMALY   = 229.4604

EPHEMERIS_TYPE = 0
CLASSIFICATION_TYPE = U
NORAD_CAT_ID   = 12904
ELEMENT_SET_NO = 999
REV_AT_EPOCH   = 98014
BSTAR          = .14358E-3
MEAN_MOTION_DOT = .3296E-4
MEAN_MOTION_DDOT = 0

CCSDS_OMM_VERS = 2.0
CREATION_DATE  = 
ORIGINATOR     = 

OBJECT_NAME    = SL-3 R/B
OBJECT_ID      = 1982-013B
CENTER_NAME    = EARTH
REF_FRAME      = TEME
TIME_SYSTEM    = UTC
MEAN_ELEMENT_THEORY = SGP/SGP4

EPOCH          = 2026-04-24T03:17:10.420224
MEAN_MOTION    = 15.22380681
ECCENTRICITY   = .0022756
INCLINATION    = 81.1714
RA_OF_ASC_NODE = 107.4788
ARG_OF_PERICENTER = 30.0522
MEAN_ANOMALY   = 330.2010

EPHEMERIS_TYPE = 0
CLASSIFICATION_TYPE = U
NORAD_CAT_ID   = 13068
ELEMENT_SET_NO = 999
REV_AT_EPOCH   = 41126
BSTAR          = .1546E-3
MEAN_MOTION_DOT = .362E-4
MEAN_MOTION_DDOT = 0

CCSDS_OMM_VERS = 2.0
CREATION_DATE  = 
ORIGINATOR     = 

OBJECT_NAME    = SL-3 R/B
OBJECT_ID      = 1982-039B
CENTER_NAME    = EARTH
REF_FRAME      = TEME
TIME_SYSTEM    = UTC
MEAN_ELEMENT_THEORY = SGP/SGP4

EPOCH          = 2026-04-24T04:12:07.699104
MEAN_MOTION    = 15.10295575
ECCENTRICITY   = .0028304
INCLINATION    = 81.1488
RA_OF_ASC_NODE = 163.4942
ARG_OF_PERICENTER = 169.6579
MEAN_ANOMALY   = 190.5235

EPHEMERIS_TYPE = 0
CLASSIFICATION_TYPE = U
NORAD_CAT_ID   = 13154
ELEMENT_SET_NO = 999
REV_AT_EPOCH   = 38850
BSTAR          = .72152E-4
MEAN_MOTION_DOT = .1216E-4
MEAN_MOTION_DDOT = 0

